FLOCK 4Q-16             
1 58271U 23174R   26197.80266473  .00014410  00000+0  25474-3 0  9995
2 58271  97.3825 286.6228 0006789  72.3990 287.8002 15.50416890150162
FLOCK 4Q-11             
1 58273U 23174T   26197.77516850  .00013689  00000+0  23788-3 0  9993
2 58273  97.3860 287.2325 0006222  66.6438 293.5468 15.50919440150173
FLOCK 4Q-28             
1 58280U 23174AA  26197.82202900  .00018714  00000+0  26211-3 0  9993
2 58280  97.3886 290.0310 0004680  58.9097 301.2617 15.56827900150354
FLOCK 4Q-27             
1 58282U 23174AC  26198.27348848  .00020022  00000+0  27810-3 0  9998
2 58282  97.3811 289.9043 0003781  62.7862 297.3778 15.57044871150439
FLOCK 4Q-7              
1 58318U 23174BQ  26197.77712013  .00022383  00000+0  30607-3 0  9991
2 58318  97.3912 290.3127 0004402  37.2333 322.9227 15.57440835150356
FLOCK 4Q-2              
1 58320U 23174BS  26198.27620588  .00013424  00000+0  23356-3 0  9994
2 58320  97.3842 287.4584 0004591  45.1801 314.9824 15.50899304150268
FLOCK 4Q-9              
1 58322U 23174BU  26197.77621038  .00017358  00000+0  29596-3 0  9993
2 58322  97.3856 287.0584 0005425  45.5828 314.5868 15.51407343150174
FLOCK 4Q-4              
1 58327U 23174BZ  26197.79199643  .00015052  00000+0  27087-3 0  9994
2 58327  97.3829 286.1854 0005655  70.3255 289.8606 15.49907966150148
FLOCK 4Q-13             
1 58328U 23174CA  26198.22497516  .00013687  00000+0  22138-3 0  9998
2 58328  97.4005 289.9480 0005754  49.7188 310.4567 15.52939908150330
FLOCK 4BE-18            
1 60480U 24149N   26197.79549459  .00009536  00000+0  22014-3 0  9999
2 60480  97.3728 281.8533 0005120 139.2375 220.9256 15.42743671106872
FLOCK 4BE-7             
1 60481U 24149P   26197.76505080  .00014368  00000+0  34444-3 0  9998
2 60481  97.3753 281.1101 0004371 144.7084 215.4453 15.41502393106804
FLOCK 4BE-36            
1 60486U 24149U   26197.75111932  .00010545  00000+0  23654-3 0  9995
2 60486  97.3743 282.5508 0004898 148.7509 211.4031 15.43574538106916
FLOCK 4BE-25            
1 60487U 24149V   26198.18751400  .00008189  00000+0  21020-3 0  9990
2 60487  97.3794 281.5564 0003755 137.9115 222.2420 15.39578350106854
FLOCK 4BE-31            
1 60488U 24149W   26197.88281722  .00012775  00000+0  27086-3 0  9996
2 60488  97.3796 283.6327 0003862 147.3195 212.8294 15.45201957106968
FLOCK 4BE-20            
1 60489U 24149X   26198.16558737  .00008108  00000+0  21310-3 0  9991
2 60489  97.3687 280.3380 0005197 148.3753 211.7806 15.38847929106824
FLOCK 4BE-23            
1 60490U 24149Y   26197.77377642  .00008378  00000+0  22341-3 0  9997
2 60490  97.3776 280.3352 0004798 151.9413 208.2092 15.38391323106744
