{"fetched_at":"2026-07-17T17:37:55.179Z","source":"https://celestrak.org/NORAD/elements/gp.php?GROUP=planet&FORMAT=JSON","constellation":"superdove","records":[{"OBJECT_NAME":"FLOCK 4Q-16","OBJECT_ID":"2023-174R","EPOCH":"2026-07-16T19:15:50.232672","CLASSIFICATION_TYPE":"U","MEAN_MOTION":15.5041689,"ECCENTRICITY":0.00067891,"INCLINATION":97.3825,"RA_OF_ASC_NODE":286.6228,"ARG_OF_PERICENTER":72.399,"MEAN_ANOMALY":287.8002,"EPHEMERIS_TYPE":0,"NORAD_CAT_ID":58271,"ELEMENT_SET_NO":999,"REV_AT_EPOCH":15016,"BSTAR":0.00025473963,"MEAN_MOTION_DOT":0.0001441,"MEAN_MOTION_DDOT":0},{"OBJECT_NAME":"FLOCK 4Q-11","OBJECT_ID":"2023-174T","EPOCH":"2026-07-16T18:36:14.558400","CLASSIFICATION_TYPE":"U","MEAN_MOTION":15.5091944,"ECCENTRICITY":0.00062223,"INCLINATION":97.386,"RA_OF_ASC_NODE":287.2325,"ARG_OF_PERICENTER":66.6438,"MEAN_ANOMALY":293.5468,"EPHEMERIS_TYPE":0,"NORAD_CAT_ID":58273,"ELEMENT_SET_NO":999,"REV_AT_EPOCH":15017,"BSTAR":0.0002378806,"MEAN_MOTION_DOT":0.00013689,"MEAN_MOTION_DDOT":0},{"OBJECT_NAME":"FLOCK 4Q-28","OBJECT_ID":"2023-174AA","EPOCH":"2026-07-16T19:43:43.305600","CLASSIFICATION_TYPE":"U","MEAN_MOTION":15.568279,"ECCENTRICITY":0.000468,"INCLINATION":97.3886,"RA_OF_ASC_NODE":290.031,"ARG_OF_PERICENTER":58.9097,"MEAN_ANOMALY":301.2617,"EPHEMERIS_TYPE":0,"NORAD_CAT_ID":58280,"ELEMENT_SET_NO":999,"REV_AT_EPOCH":15035,"BSTAR":0.00026211263,"MEAN_MOTION_DOT":0.00018714,"MEAN_MOTION_DDOT":0},{"OBJECT_NAME":"FLOCK 4Q-27","OBJECT_ID":"2023-174AC","EPOCH":"2026-07-17T06:33:49.404672","CLASSIFICATION_TYPE":"U","MEAN_MOTION":15.57044871,"ECCENTRICITY":0.00037811,"INCLINATION":97.3811,"RA_OF_ASC_NODE":289.9043,"ARG_OF_PERICENTER":62.7862,"MEAN_ANOMALY":297.3778,"EPHEMERIS_TYPE":0,"NORAD_CAT_ID":58282,"ELEMENT_SET_NO":999,"REV_AT_EPOCH":15043,"BSTAR":0.00027809543,"MEAN_MOTION_DOT":0.00020022,"MEAN_MOTION_DDOT":0},{"OBJECT_NAME":"FLOCK 4Q-7","OBJECT_ID":"2023-174BQ","EPOCH":"2026-07-16T18:39:03.179232","CLASSIFICATION_TYPE":"U","MEAN_MOTION":15.57440835,"ECCENTRICITY":0.00044026,"INCLINATION":97.3912,"RA_OF_ASC_NODE":290.3127,"ARG_OF_PERICENTER":37.2333,"MEAN_ANOMALY":322.9227,"EPHEMERIS_TYPE":0,"NORAD_CAT_ID":58318,"ELEMENT_SET_NO":999,"REV_AT_EPOCH":15035,"BSTAR":0.00030606812,"MEAN_MOTION_DOT":0.00022383,"MEAN_MOTION_DDOT":0},{"OBJECT_NAME":"FLOCK 4Q-2","OBJECT_ID":"2023-174BS","EPOCH":"2026-07-17T06:37:44.188032","CLASSIFICATION_TYPE":"U","MEAN_MOTION":15.50899304,"ECCENTRICITY":0.00045919,"INCLINATION":97.3842,"RA_OF_ASC_NODE":287.4584,"ARG_OF_PERICENTER":45.1801,"MEAN_ANOMALY":314.9824,"EPHEMERIS_TYPE":0,"NORAD_CAT_ID":58320,"ELEMENT_SET_NO":999,"REV_AT_EPOCH":15026,"BSTAR":0.00023356452,"MEAN_MOTION_DOT":0.00013424,"MEAN_MOTION_DDOT":0},{"OBJECT_NAME":"FLOCK 4Q-9","OBJECT_ID":"2023-174BU","EPOCH":"2026-07-16T18:37:44.576832","CLASSIFICATION_TYPE":"U","MEAN_MOTION":15.51407343,"ECCENTRICITY":0.00054252,"INCLINATION":97.3856,"RA_OF_ASC_NODE":287.0584,"ARG_OF_PERICENTER":45.5828,"MEAN_ANOMALY":314.5868,"EPHEMERIS_TYPE":0,"NORAD_CAT_ID":58322,"ELEMENT_SET_NO":999,"REV_AT_EPOCH":15017,"BSTAR":0.00029595975,"MEAN_MOTION_DOT":0.00017358,"MEAN_MOTION_DDOT":0},{"OBJECT_NAME":"FLOCK 4Q-4","OBJECT_ID":"2023-174BZ","EPOCH":"2026-07-16T19:00:28.491552","CLASSIFICATION_TYPE":"U","MEAN_MOTION":15.49907966,"ECCENTRICITY":0.0005655,"INCLINATION":97.3829,"RA_OF_ASC_NODE":286.1854,"ARG_OF_PERICENTER":70.3255,"MEAN_ANOMALY":289.8606,"EPHEMERIS_TYPE":0,"NORAD_CAT_ID":58327,"ELEMENT_SET_NO":999,"REV_AT_EPOCH":15014,"BSTAR":0.0002708706,"MEAN_MOTION_DOT":0.00015052,"MEAN_MOTION_DDOT":0},{"OBJECT_NAME":"FLOCK 4Q-13","OBJECT_ID":"2023-174CA","EPOCH":"2026-07-17T05:23:57.853824","CLASSIFICATION_TYPE":"U","MEAN_MOTION":15.52939908,"ECCENTRICITY":0.00057547,"INCLINATION":97.4005,"RA_OF_ASC_NODE":289.948,"ARG_OF_PERICENTER":49.7188,"MEAN_ANOMALY":310.4567,"EPHEMERIS_TYPE":0,"NORAD_CAT_ID":58328,"ELEMENT_SET_NO":999,"REV_AT_EPOCH":15033,"BSTAR":0.00022137977,"MEAN_MOTION_DOT":0.00013687,"MEAN_MOTION_DDOT":0},{"OBJECT_NAME":"FLOCK 4BE-18","OBJECT_ID":"2024-149N","EPOCH":"2026-07-16T19:05:30.732576","CLASSIFICATION_TYPE":"U","MEAN_MOTION":15.42743671,"ECCENTRICITY":0.00051208,"INCLINATION":97.3728,"RA_OF_ASC_NODE":281.8533,"ARG_OF_PERICENTER":139.2375,"MEAN_ANOMALY":220.9256,"EPHEMERIS_TYPE":0,"NORAD_CAT_ID":60480,"ELEMENT_SET_NO":999,"REV_AT_EPOCH":10687,"BSTAR":0.00022014449,"MEAN_MOTION_DOT":0.00009536,"MEAN_MOTION_DDOT":0},{"OBJECT_NAME":"FLOCK 4BE-7","OBJECT_ID":"2024-149P","EPOCH":"2026-07-16T18:21:40.389120","CLASSIFICATION_TYPE":"U","MEAN_MOTION":15.41502393,"ECCENTRICITY":0.00043712,"INCLINATION":97.3753,"RA_OF_ASC_NODE":281.1101,"ARG_OF_PERICENTER":144.7084,"MEAN_ANOMALY":215.4453,"EPHEMERIS_TYPE":0,"NORAD_CAT_ID":60481,"ELEMENT_SET_NO":999,"REV_AT_EPOCH":10680,"BSTAR":0.00034443609,"MEAN_MOTION_DOT":0.00014368,"MEAN_MOTION_DDOT":0},{"OBJECT_NAME":"FLOCK 4BE-36","OBJECT_ID":"2024-149U","EPOCH":"2026-07-16T18:01:36.709248","CLASSIFICATION_TYPE":"U","MEAN_MOTION":15.43574538,"ECCENTRICITY":0.00048986,"INCLINATION":97.3743,"RA_OF_ASC_NODE":282.5508,"ARG_OF_PERICENTER":148.7509,"MEAN_ANOMALY":211.4031,"EPHEMERIS_TYPE":0,"NORAD_CAT_ID":60486,"ELEMENT_SET_NO":999,"REV_AT_EPOCH":10691,"BSTAR":0.00023654134,"MEAN_MOTION_DOT":0.00010545,"MEAN_MOTION_DDOT":0},{"OBJECT_NAME":"FLOCK 4BE-25","OBJECT_ID":"2024-149V","EPOCH":"2026-07-17T04:30:01.209600","CLASSIFICATION_TYPE":"U","MEAN_MOTION":15.3957835,"ECCENTRICITY":0.00037555,"INCLINATION":97.3794,"RA_OF_ASC_NODE":281.5564,"ARG_OF_PERICENTER":137.9115,"MEAN_ANOMALY":222.242,"EPHEMERIS_TYPE":0,"NORAD_CAT_ID":60487,"ELEMENT_SET_NO":999,"REV_AT_EPOCH":10685,"BSTAR":0.00021020158,"MEAN_MOTION_DOT":0.00008189,"MEAN_MOTION_DDOT":0},{"OBJECT_NAME":"FLOCK 4BE-31","OBJECT_ID":"2024-149W","EPOCH":"2026-07-16T21:11:15.407808","CLASSIFICATION_TYPE":"U","MEAN_MOTION":15.45201957,"ECCENTRICITY":0.00038625,"INCLINATION":97.3796,"RA_OF_ASC_NODE":283.6327,"ARG_OF_PERICENTER":147.3195,"MEAN_ANOMALY":212.8294,"EPHEMERIS_TYPE":0,"NORAD_CAT_ID":60488,"ELEMENT_SET_NO":999,"REV_AT_EPOCH":10696,"BSTAR":0.00027085831,"MEAN_MOTION_DOT":0.00012775,"MEAN_MOTION_DDOT":0},{"OBJECT_NAME":"FLOCK 4BE-20","OBJECT_ID":"2024-149X","EPOCH":"2026-07-17T03:58:26.748768","CLASSIFICATION_TYPE":"U","MEAN_MOTION":15.38847929,"ECCENTRICITY":0.00051978,"INCLINATION":97.3687,"RA_OF_ASC_NODE":280.338,"ARG_OF_PERICENTER":148.3753,"MEAN_ANOMALY":211.7806,"EPHEMERIS_TYPE":0,"NORAD_CAT_ID":60489,"ELEMENT_SET_NO":999,"REV_AT_EPOCH":10682,"BSTAR":0.00021309791,"MEAN_MOTION_DOT":0.00008108,"MEAN_MOTION_DDOT":0},{"OBJECT_NAME":"FLOCK 4BE-23","OBJECT_ID":"2024-149Y","EPOCH":"2026-07-16T18:34:14.282688","CLASSIFICATION_TYPE":"U","MEAN_MOTION":15.38391323,"ECCENTRICITY":0.0004798,"INCLINATION":97.3776,"RA_OF_ASC_NODE":280.3352,"ARG_OF_PERICENTER":151.9413,"MEAN_ANOMALY":208.2092,"EPHEMERIS_TYPE":0,"NORAD_CAT_ID":60490,"ELEMENT_SET_NO":999,"REV_AT_EPOCH":10674,"BSTAR":0.00022341406,"MEAN_MOTION_DOT":0.00008378,"MEAN_MOTION_DDOT":0}]}
